start=new Date('2023-06-14T00:00:00.000Z').valueOf();
sats=[{"SEMIMAJOR_AXIS":"6925.269","MEAN_MOTION":"15.06426064","OBJECT_ID":"2021-017G","EPHEMERIS_TYPE":"0","PERIOD":"95.590","REF_FRAME":"TEME","FILE":"3932371","TLE_LINE1":"1 47728U 21017G   23164.85752437  .00023202  00000-0  15703-2 0  9993","OBJECT_NAME":"STARLINK-2131","MEAN_ANOMALY":"283.1447","EPOCH":"2023-06-13T20:34:50.105568","BSTAR":"0.00157030000000","COUNTRY_CODE":"US","NORAD_CAT_ID":"47728","MEAN_MOTION_DDOT":"0.0000000000000","LAUNCH_DATE":"2021-03-04","APOAPSIS":"547.925","TIME_SYSTEM":"UTC","RA_OF_ASC_NODE":"10.0432","CENTER_NAME":"EARTH","DECAY_DATE":null,"ELEMENT_SET_NO":"999","ARG_OF_PERICENTER":"76.9669","PERIAPSIS":"546.343","CLASSIFICATION_TYPE":"U","ECCENTRICITY":"0.00011420","SITE":"AFETR","TLE_LINE2":"2 47728  53.0549  10.0432 0001142  76.9669 283.1447 15.06426064127224","RCS_SIZE":"LARGE","REV_AT_EPOCH":"12722","OBJECT_TYPE":"PAYLOAD","GP_ID":"233872456","MEAN_MOTION_DOT":"0.00023202","MEAN_ELEMENT_THEORY":"SGP4","INCLINATION":"53.0549"},{"APOAPSIS":"547.949","TIME_SYSTEM":"UTC","MEAN_MOTION_DDOT":"0.0000000000000","LAUNCH_DATE":"2021-03-04","EPOCH":"2023-06-13T19:41:07.801152","BSTAR":"0.00170380000000","NORAD_CAT_ID":"47729","COUNTRY_CODE":"US","TLE_LINE1":"1 47729U 21017H   23164.82022918  .00025212  00000-0  17038-2 0  9991","MEAN_ANOMALY":"287.3334","OBJECT_NAME":"STARLINK-2132","REF_FRAME":"TEME","PERIOD":"95.590","FILE":"3932371","EPHEMERIS_TYPE":"0","SEMIMAJOR_AXIS":"6925.238","OBJECT_ID":"2021-017H","MEAN_MOTION":"15.06436104","GP_ID":"233871208","MEAN_MOTION_DOT":"0.00025212","MEAN_ELEMENT_THEORY":"SGP4","INCLINATION":"53.0542","RCS_SIZE":"LARGE","REV_AT_EPOCH":"12792","OBJECT_TYPE":"PAYLOAD","ECCENTRICITY":"0.00012220","SITE":"AFETR","TLE_LINE2":"2 47729  53.0542 315.4104 0001222  72.7789 287.3334 15.06436104127926","DECAY_DATE":null,"ELEMENT_SET_NO":"999","PERIAPSIS":"546.257","CLASSIFICATION_TYPE":"U","ARG_OF_PERICENTER":"72.7789","CENTER_NAME":"EARTH","RA_OF_ASC_NODE":"315.4104"},{"CENTER_NAME":"EARTH","RA_OF_ASC_NODE":"24.9513","REV_AT_EPOCH":"12696","RCS_SIZE":"LARGE","OBJECT_TYPE":"PAYLOAD","GP_ID":"233871457","MEAN_MOTION_DOT":"0.00020632","INCLINATION":"53.0547","MEAN_ELEMENT_THEORY":"SGP4","ELEMENT_SET_NO":"999","DECAY_DATE":null,"CLASSIFICATION_TYPE":"U","PERIAPSIS":"546.275","ARG_OF_PERICENTER":"81.7096","ECCENTRICITY":"0.00012090","TLE_LINE2":"2 47730  53.0547  24.9513 0001209  81.7096 278.4030 15.06433102126967","SITE":"AFETR","EPHEMERIS_TYPE":"0","PERIOD":"95.590","REF_FRAME":"TEME","FILE":"3932371","OBJECT_ID":"2021-017J","MEAN_MOTION":"15.06433102","SEMIMAJOR_AXIS":"6925.247","MEAN_MOTION_DDOT":"0.0000000000000","LAUNCH_DATE":"2021-03-04","TIME_SYSTEM":"UTC","APOAPSIS":"547.949","TLE_LINE1":"1 47730U 21017J   23164.88010274  .00020632  00000-0  13987-2 0  9991","MEAN_ANOMALY":"278.4030","OBJECT_NAME":"STARLINK-2140","EPOCH":"2023-06-13T21:07:20.876736","BSTAR":"0.00139870000000","COUNTRY_CODE":"US","NORAD_CAT_ID":"47730"},{"RA_OF_ASC_NODE":"19.9090","CENTER_NAME":"EARTH","ECCENTRICITY":"0.00010210","TLE_LINE2":"2 47731  53.0556  19.9090 0001021  88.6224 271.4882 15.06426688127042","SITE":"AFETR","ELEMENT_SET_NO":"999","DECAY_DATE":null,"ARG_OF_PERICENTER":"88.6224","PERIAPSIS":"546.425","CLASSIFICATION_TYPE":"U","MEAN_MOTION_DOT":"0.00021602","GP_ID":"233871709","INCLINATION":"53.0556","MEAN_ELEMENT_THEORY":"SGP4","RCS_SIZE":"LARGE","REV_AT_EPOCH":"12704","OBJECT_TYPE":"PAYLOAD","OBJECT_ID":"2021-017K","MEAN_MOTION":"15.06426688","SEMIMAJOR_AXIS":"6925.267","PERIOD":"95.590","REF_FRAME":"TEME","FILE":"3932371","EPHEMERIS_TYPE":"0","BSTAR":"0.00146360000000","EPOCH":"2023-06-13T21:15:58.343616","NORAD_CAT_ID":"47731","COUNTRY_CODE":"US","TLE_LINE1":"1 47731U 21017K   23164.88609194  .00021602  00000-0  14636-2 0  9997","OBJECT_NAME":"STARLINK-2141","MEAN_ANOMALY":"271.4882","TIME_SYSTEM":"UTC","APOAPSIS":"547.839","MEAN_MOTION_DDOT":"0.0000000000000","LAUNCH_DATE":"2021-03-04"},{"CENTER_NAME":"EARTH","RA_OF_ASC_NODE":"297.3526","INCLINATION":"53.0555","MEAN_ELEMENT_THEORY":"SGP4","MEAN_MOTION_DOT":"0.00010325","GP_ID":"233839749","OBJECT_TYPE":"PAYLOAD","RCS_SIZE":"LARGE","REV_AT_EPOCH":"12815","SITE":"AFETR","TLE_LINE2":"2 47732  53.0555 297.3526 0001088  69.2175 290.8930 15.06410374128158","ECCENTRICITY":"0.00010880","PERIAPSIS":"546.428","CLASSIFICATION_TYPE":"U","ARG_OF_PERICENTER":"69.2175","DECAY_DATE":null,"ELEMENT_SET_NO":"999","FILE":"3932134","REF_FRAME":"TEME","PERIOD":"95.591","EPHEMERIS_TYPE":"0","SEMIMAJOR_AXIS":"6925.317","OBJECT_ID":"2021-017L","MEAN_MOTION":"15.06410374","APOAPSIS":"547.935","TIME_SYSTEM":"UTC","LAUNCH_DATE":"2021-03-04","MEAN_MOTION_DDOT":"0.0000000000000","COUNTRY_CODE":"US","NORAD_CAT_ID":"47732","BSTAR":"0.00071085000000","EPOCH":"2023-06-13T09:28:05.809152","TLE_LINE1":"1 47732U 21017L   23164.39451168  .00010325  00000-0  71085-3 0  9992","MEAN_ANOMALY":"290.8930","OBJECT_NAME":"STARLINK-2142"},{"MEAN_MOTION":"15.06413034","OBJECT_ID":"2021-017M","SEMIMAJOR_AXIS":"6925.309","EPHEMERIS_TYPE":"0","FILE":"3932371","REF_FRAME":"TEME","PERIOD":"95.591","MEAN_ANOMALY":"271.0508","TLE_LINE1":"1 47733U 21017M   23164.74142296  .00022019  00000-0  14920-2 0  9998","OBJECT_NAME":"STARLINK-2143","COUNTRY_CODE":"US","NORAD_CAT_ID":"47733","BSTAR":"0.00149200000000","EPOCH":"2023-06-13T17:47:38.943744","LAUNCH_DATE":"2021-03-04","MEAN_MOTION_DDOT":"0.0000000000000","TIME_SYSTEM":"UTC","APOAPSIS":"547.863","RA_OF_ASC_NODE":"30.5627","CENTER_NAME":"EARTH","ARG_OF_PERICENTER":"89.0595","PERIAPSIS":"546.484","CLASSIFICATION_TYPE":"U","ELEMENT_SET_NO":"999","DECAY_DATE":null,"TLE_LINE2":"2 47733  53.0553  30.5627 0000996  89.0595 271.0508 15.06413034126920","SITE":"AFETR","ECCENTRICITY":"0.00009960","OBJECT_TYPE":"PAYLOAD","REV_AT_EPOCH":"12692","RCS_SIZE":"LARGE","INCLINATION":"53.0553","MEAN_ELEMENT_THEORY":"SGP4","MEAN_MOTION_DOT":"0.00022019","GP_ID":"233870708"},{"RCS_SIZE":"LARGE","REV_AT_EPOCH":"12705","OBJECT_TYPE":"PAYLOAD","MEAN_MOTION_DOT":"0.00012612","GP_ID":"233870957","MEAN_ELEMENT_THEORY":"SGP4","INCLINATION":"53.0556","DECAY_DATE":null,"ELEMENT_SET_NO":"999","CLASSIFICATION_TYPE":"U","PERIAPSIS":"546.622","ARG_OF_PERICENTER":"73.7995","ECCENTRICITY":"0.00007520","TLE_LINE2":"2 47734  53.0556  19.8751 0000752  73.7995 286.3077 15.06423099127053","SITE":"AFETR","CENTER_NAME":"EARTH","RA_OF_ASC_NODE":"19.8751","MEAN_MOTION_DDOT":"0.0000000000000","LAUNCH_DATE":"2021-03-04","TIME_SYSTEM":"UTC","APOAPSIS":"547.664","TLE_LINE1":"1 47734U 21017N   23164.89345933  .00012612  00000-0  86351-3 0  9994","OBJECT_NAME":"STARLINK-2144","MEAN_ANOMALY":"286.3077","EPOCH":"2023-06-13T21:26:34.886112","BSTAR":"0.00086351000000","NORAD_CAT_ID":"47734","COUNTRY_CODE":"US","EPHEMERIS_TYPE":"0","REF_FRAME":"TEME","PERIOD":"95.591","FILE":"3932371","MEAN_MOTION":"15.06423099","OBJECT_ID":"2021-017N","SEMIMAJOR_AXIS":"6925.278"},{"MEAN_MOTION":"15.06428891","OBJECT_ID":"2021-017P","SEMIMAJOR_AXIS":"6925.260","FILE":"3932371","PERIOD":"95.590","REF_FRAME":"TEME","EPHEMERIS_TYPE":"0","NORAD_CAT_ID":"47735","COUNTRY_CODE":"US","EPOCH":"2023-06-13T18:38:45.285792","BSTAR":"0.00119770000000","MEAN_ANOMALY":"270.1944","TLE_LINE1":"1 47735U 21017P   23164.77691303  .00017617  00000-0  11977-2 0  9998","OBJECT_NAME":"STARLINK-2146","TIME_SYSTEM":"UTC","APOAPSIS":"547.964","LAUNCH_DATE":"2021-03-04","MEAN_MOTION_DDOT":"0.0000000000000","RA_OF_ASC_NODE":"305.5662","CENTER_NAME":"EARTH","TLE_LINE2":"2 47735  53.0542 305.5662 0001211  89.9183 270.1944 15.06428891128065","SITE":"AFETR","ECCENTRICITY":"0.00012110","CLASSIFICATION_TYPE":"U","PERIAPSIS":"546.286","ARG_OF_PERICENTER":"89.9183","DECAY_DATE":null,"ELEMENT_SET_NO":"999","INCLINATION":"53.0542","MEAN_ELEMENT_THEORY":"SGP4","GP_ID":"233872210","MEAN_MOTION_DOT":"0.00017617","OBJECT_TYPE":"PAYLOAD","REV_AT_EPOCH":"12806","RCS_SIZE":"LARGE"},{"EPHEMERIS_TYPE":"0","FILE":"3932371","REF_FRAME":"TEME","PERIOD":"95.591","SEMIMAJOR_AXIS":"6925.278","MEAN_MOTION":"15.06423134","OBJECT_ID":"2021-017Q","LAUNCH_DATE":"2021-03-04","MEAN_MOTION_DDOT":"0.0000000000000","APOAPSIS":"547.788","TIME_SYSTEM":"UTC","TLE_LINE1":"1 47736U 21017Q   23164.86121329  .00017348  00000-0  11799-2 0  9998","MEAN_ANOMALY":"290.6403","OBJECT_NAME":"STARLINK-2147","COUNTRY_CODE":"US","NORAD_CAT_ID":"47736","EPOCH":"2023-06-13T20:40:08.828256","BSTAR":"0.00117990000000","CENTER_NAME":"EARTH","RA_OF_ASC_NODE":"10.0208","OBJECT_TYPE":"PAYLOAD","RCS_SIZE":"LARGE","REV_AT_EPOCH":"12722","MEAN_ELEMENT_THEORY":"SGP4","INCLINATION":"53.0556","GP_ID":"233872457","MEAN_MOTION_DOT":"0.00017348","CLASSIFICATION_TYPE":"U","PERIAPSIS":"546.497","ARG_OF_PERICENTER":"69.4686","ELEMENT_SET_NO":"999","DECAY_DATE":null,"SITE":"AFETR","TLE_LINE2":"2 47736  53.0556  10.0208 0000932  69.4686 290.6403 15.06423134127224","ECCENTRICITY":"0.00009320"},{"LAUNCH_DATE":"2021-03-04","MEAN_MOTION_DDOT":"0.0000000000000","TIME_SYSTEM":"UTC","APOAPSIS":"459.587","TLE_LINE1":"1 47737U 21017R   23164.88040991 -.00000349  00000-0  93650-6 0  9990","MEAN_ANOMALY":"290.2702","OBJECT_NAME":"STARLINK-2148","NORAD_CAT_ID":"47737","COUNTRY_CODE":"US","EPOCH":"2023-06-13T21:07:47.416224","BSTAR":"0.00000093650000","EPHEMERIS_TYPE":"0","FILE":"3932371","PERIOD":"93.766","REF_FRAME":"TEME","OBJECT_ID":"2021-017R","MEAN_MOTION":"15.35744586","SEMIMAJOR_AXIS":"6836.847","OBJECT_TYPE":"PAYLOAD","REV_AT_EPOCH":"12939","RCS_SIZE":"LARGE","INCLINATION":"53.0532","MEAN_ELEMENT_THEORY":"SGP4","GP_ID":"233871209","MEAN_MOTION_DOT":"-0.00000349","ARG_OF_PERICENTER":"69.8437","PERIAPSIS":"457.837","CLASSIFICATION_TYPE":"U","ELEMENT_SET_NO":"999","DECAY_DATE":null,"TLE_LINE2":"2 47737  53.0532 216.4771 0001280  69.8437 290.2702 15.35744586129398","SITE":"AFETR","ECCENTRICITY":"0.00012800","CENTER_NAME":"EARTH","RA_OF_ASC_NODE":"216.4771"}];
